UNKNOWN                 
1 81599U          26065.54603071  .00000030  00000+0  16183-3 0  9991
2 81599  67.2921  99.6646 0246746  22.3697 129.5716 13.31539553596233
UNKNOWN                 
1 81605U          26065.13508409 -.00001613  00000+0 -61990-2 0  9998
2 81605  56.4354 337.3034 0149171 254.5569 103.8838 12.81426946196898
UNKNOWN                 
1 81614U          26062.92334565  .00006671  00000+0  40930-1 0  9999
2 81614 101.8470  61.3105 0365131 356.6923   3.1739 12.38114321548020
UNKNOWN                 
1 81615U          26065.46145425  .00003271  00000+0  11884-2 0  9997
2 81615  65.8264 226.9870 0766905  97.3987 271.4788 13.34453566594032
UNKNOWN                 
1 81617U          26064.92227212  .00000333  00000+0  22257-2 0  9996
2 81617 101.2673 240.7704 0031955  79.7119 280.7558 12.57601840563560
UNKNOWN                 
1 81624U          26057.07858416  .00004588  00000+0  72056-3 0  9997
2 81624  66.9770 318.5702 0063505 176.9023 183.2505 14.72174479650798
UNKNOWN                 
1 81640U          26065.14207456  .00000643  00000+0  64051-3 0  9998
2 81640  65.8272 321.4296 0979148  43.5888 323.8380 12.57297786520561
UNKNOWN                 
1 81652U          26063.25408644  .00000528  00000+0  67858-3 0  9993
2 81652 102.1435 333.6546 0363333 177.4559 335.5877 13.44496347589600
UNKNOWN                 
1 81667U          26064.89678705  .00003895  00000+0  10427-2 0  9996
2 81667  74.0395 240.8812 0014982 155.1547 205.0337 14.48516277468682
UNKNOWN                 
1 81674U          26057.96617279  .00001014  00000+0  61639-3 0  9996
2 81674  66.8236 172.2986 0024950 182.2064 291.0582 14.10128568624462
UNKNOWN                 
1 81683U          26064.39181009  .00005914  00000+0  12790-2 0  9994
2 81683  81.2163 208.1632 0023249  45.9952 314.3156 14.58020261647903
UNKNOWN                 
1 81745U          26061.08398206  .00003423  00000+0  10839-2 0  9990
2 81745  70.9991 213.7849 0002967  99.6396 260.5075 14.40797620641176
UNKNOWN                 
1 81775U          26061.21342033  .00007226  00000+0  21897-2 0  9996
2 81775  82.9210 158.3653 0013053   2.9600 357.1668 14.42122005636723
UNKNOWN                 
1 81779U          26064.43184500 -.00003624  00000+0 -23919+0 0  9994
2 81779  54.5102  86.0319 1451445 126.0464 248.3670  9.33711592488049
UNKNOWN                 
1 81792U          26061.28961596  .00001662  00000+0  60434-3 0  9992
2 81792  65.8297 277.0548 0894865 247.3283 103.0797 13.11312865 90465
UNKNOWN                 
1 81812U          26064.74285620  .00007474  00000+0  50324-1 0  9998
2 81812 103.8061 352.0703 0281195  87.7017 275.6202 12.38161585550832
UNKNOWN                 
1 81816U          26065.51396507  .00001597  00000+0  12095-2 0  9999
2 81816  66.2376  87.2190 0173451 200.6975 158.7017 13.89754232620981
