[{"OBJECT_NAME":"UNKNOWN","OBJECT_ID":"","EPOCH":"2026-03-06T13:06:17.053344","MEAN_MOTION":13.31539553,"ECCENTRICITY":0.0246746,"INCLINATION":67.2921,"RA_OF_ASC_NODE":99.6646,"ARG_OF_PERICENTER":22.3697,"MEAN_ANOMALY":129.5716,"EPHEMERIS_TYPE":0,"CLASSIFICATION_TYPE":"U","NORAD_CAT_ID":81599,"ELEMENT_SET_NO":999,"REV_AT_EPOCH":59623,"BSTAR":0.00016183,"MEAN_MOTION_DOT":3.0e-7,"MEAN_MOTION_DDOT":0},{"OBJECT_NAME":"UNKNOWN","OBJECT_ID":"","EPOCH":"2026-03-06T03:14:31.265376","MEAN_MOTION":12.81426946,"ECCENTRICITY":0.0149171,"INCLINATION":56.4354,"RA_OF_ASC_NODE":337.3034,"ARG_OF_PERICENTER":254.5569,"MEAN_ANOMALY":103.8838,"EPHEMERIS_TYPE":0,"CLASSIFICATION_TYPE":"U","NORAD_CAT_ID":81605,"ELEMENT_SET_NO":999,"REV_AT_EPOCH":19689,"BSTAR":-0.006199,"MEAN_MOTION_DOT":-1.613e-5,"MEAN_MOTION_DDOT":0},{"OBJECT_NAME":"UNKNOWN","OBJECT_ID":"","EPOCH":"2026-03-03T22:09:37.064160","MEAN_MOTION":12.38114321,"ECCENTRICITY":0.0365131,"INCLINATION":101.847,"RA_OF_ASC_NODE":61.3105,"ARG_OF_PERICENTER":356.6923,"MEAN_ANOMALY":3.1739,"EPHEMERIS_TYPE":0,"CLASSIFICATION_TYPE":"U","NORAD_CAT_ID":81614,"ELEMENT_SET_NO":999,"REV_AT_EPOCH":54802,"BSTAR":0.04093,"MEAN_MOTION_DOT":6.671e-5,"MEAN_MOTION_DDOT":0},{"OBJECT_NAME":"UNKNOWN","OBJECT_ID":"","EPOCH":"2026-03-06T11:04:29.647200","MEAN_MOTION":13.34453566,"ECCENTRICITY":0.0766905,"INCLINATION":65.8264,"RA_OF_ASC_NODE":226.987,"ARG_OF_PERICENTER":97.3987,"MEAN_ANOMALY":271.4788,"EPHEMERIS_TYPE":0,"CLASSIFICATION_TYPE":"U","NORAD_CAT_ID":81615,"ELEMENT_SET_NO":999,"REV_AT_EPOCH":59403,"BSTAR":0.0011884,"MEAN_MOTION_DOT":3.271e-5,"MEAN_MOTION_DDOT":0},{"OBJECT_NAME":"UNKNOWN","OBJECT_ID":"","EPOCH":"2026-03-05T22:08:04.311168","MEAN_MOTION":12.5760184,"ECCENTRICITY":0.0031955,"INCLINATION":101.2673,"RA_OF_ASC_NODE":240.7704,"ARG_OF_PERICENTER":79.7119,"MEAN_ANOMALY":280.7558,"EPHEMERIS_TYPE":0,"CLASSIFICATION_TYPE":"U","NORAD_CAT_ID":81617,"ELEMENT_SET_NO":999,"REV_AT_EPOCH":56356,"BSTAR":0.0022257,"MEAN_MOTION_DOT":3.33e-6,"MEAN_MOTION_DDOT":0},{"OBJECT_NAME":"UNKNOWN","OBJECT_ID":"","EPOCH":"2026-02-26T01:53:09.671424","MEAN_MOTION":14.72174479,"ECCENTRICITY":0.0063505,"INCLINATION":66.977,"RA_OF_ASC_NODE":318.5702,"ARG_OF_PERICENTER":176.9023,"MEAN_ANOMALY":183.2505,"EPHEMERIS_TYPE":0,"CLASSIFICATION_TYPE":"U","NORAD_CAT_ID":81624,"ELEMENT_SET_NO":999,"REV_AT_EPOCH":65079,"BSTAR":0.00072056,"MEAN_MOTION_DOT":4.588e-5,"MEAN_MOTION_DDOT":0},{"OBJECT_NAME":"UNKNOWN","OBJECT_ID":"","EPOCH":"2026-03-06T03:24:35.241984","MEAN_MOTION":12.57297786,"ECCENTRICITY":0.0979148,"INCLINATION":65.8272,"RA_OF_ASC_NODE":321.4296,"ARG_OF_PERICENTER":43.5888,"MEAN_ANOMALY":323.838,"EPHEMERIS_TYPE":0,"CLASSIFICATION_TYPE":"U","NORAD_CAT_ID":81640,"ELEMENT_SET_NO":999,"REV_AT_EPOCH":52056,"BSTAR":0.00064051,"MEAN_MOTION_DOT":6.43e-6,"MEAN_MOTION_DDOT":0},{"OBJECT_NAME":"UNKNOWN","OBJECT_ID":"","EPOCH":"2026-03-04T06:05:53.068416","MEAN_MOTION":13.44496347,"ECCENTRICITY":0.0363333,"INCLINATION":102.1435,"RA_OF_ASC_NODE":333.6546,"ARG_OF_PERICENTER":177.4559,"MEAN_ANOMALY":335.5877,"EPHEMERIS_TYPE":0,"CLASSIFICATION_TYPE":"U","NORAD_CAT_ID":81652,"ELEMENT_SET_NO":999,"REV_AT_EPOCH":58960,"BSTAR":0.00067858,"MEAN_MOTION_DOT":5.28e-6,"MEAN_MOTION_DDOT":0},{"OBJECT_NAME":"UNKNOWN","OBJECT_ID":"","EPOCH":"2026-03-05T21:31:22.401120","MEAN_MOTION":14.48516277,"ECCENTRICITY":0.0014982,"INCLINATION":74.0395,"RA_OF_ASC_NODE":240.8812,"ARG_OF_PERICENTER":155.1547,"MEAN_ANOMALY":205.0337,"EPHEMERIS_TYPE":0,"CLASSIFICATION_TYPE":"U","NORAD_CAT_ID":81667,"ELEMENT_SET_NO":999,"REV_AT_EPOCH":46868,"BSTAR":0.0010427,"MEAN_MOTION_DOT":3.895e-5,"MEAN_MOTION_DDOT":0},{"OBJECT_NAME":"UNKNOWN","OBJECT_ID":"","EPOCH":"2026-02-26T23:11:17.329056","MEAN_MOTION":14.10128568,"ECCENTRICITY":0.002495,"INCLINATION":66.8236,"RA_OF_ASC_NODE":172.2986,"ARG_OF_PERICENTER":182.2064,"MEAN_ANOMALY":291.0582,"EPHEMERIS_TYPE":0,"CLASSIFICATION_TYPE":"U","NORAD_CAT_ID":81674,"ELEMENT_SET_NO":999,"REV_AT_EPOCH":62446,"BSTAR":0.00061639,"MEAN_MOTION_DOT":1.014e-5,"MEAN_MOTION_DDOT":0},{"OBJECT_NAME":"UNKNOWN","OBJECT_ID":"","EPOCH":"2026-03-05T09:24:12.391776","MEAN_MOTION":14.58020261,"ECCENTRICITY":0.0023249,"INCLINATION":81.2163,"RA_OF_ASC_NODE":208.1632,"ARG_OF_PERICENTER":45.9952,"MEAN_ANOMALY":314.3156,"EPHEMERIS_TYPE":0,"CLASSIFICATION_TYPE":"U","NORAD_CAT_ID":81683,"ELEMENT_SET_NO":999,"REV_AT_EPOCH":64790,"BSTAR":0.001279,"MEAN_MOTION_DOT":5.914e-5,"MEAN_MOTION_DDOT":0},{"OBJECT_NAME":"UNKNOWN","OBJECT_ID":"","EPOCH":"2026-03-02T02:00:56.049984","MEAN_MOTION":14.4079762,"ECCENTRICITY":0.0002967,"INCLINATION":70.9991,"RA_OF_ASC_NODE":213.7849,"ARG_OF_PERICENTER":99.6396,"MEAN_ANOMALY":260.5075,"EPHEMERIS_TYPE":0,"CLASSIFICATION_TYPE":"U","NORAD_CAT_ID":81745,"ELEMENT_SET_NO":999,"REV_AT_EPOCH":64117,"BSTAR":0.0010839,"MEAN_MOTION_DOT":3.423e-5,"MEAN_MOTION_DDOT":0},{"OBJECT_NAME":"UNKNOWN","OBJECT_ID":"","EPOCH":"2026-03-02T05:07:19.516512","MEAN_MOTION":14.42122005,"ECCENTRICITY":0.0013053,"INCLINATION":82.921,"RA_OF_ASC_NODE":158.3653,"ARG_OF_PERICENTER":2.96,"MEAN_ANOMALY":357.1668,"EPHEMERIS_TYPE":0,"CLASSIFICATION_TYPE":"U","NORAD_CAT_ID":81775,"ELEMENT_SET_NO":999,"REV_AT_EPOCH":63672,"BSTAR":0.0021897,"MEAN_MOTION_DOT":7.226e-5,"MEAN_MOTION_DDOT":0},{"OBJECT_NAME":"UNKNOWN","OBJECT_ID":"","EPOCH":"2026-03-05T10:21:51.408000","MEAN_MOTION":9.33711592,"ECCENTRICITY":0.1451445,"INCLINATION":54.5102,"RA_OF_ASC_NODE":86.0319,"ARG_OF_PERICENTER":126.0464,"MEAN_ANOMALY":248.367,"EPHEMERIS_TYPE":0,"CLASSIFICATION_TYPE":"U","NORAD_CAT_ID":81779,"ELEMENT_SET_NO":999,"REV_AT_EPOCH":48804,"BSTAR":-0.23919,"MEAN_MOTION_DOT":-3.624e-5,"MEAN_MOTION_DDOT":0},{"OBJECT_NAME":"UNKNOWN","OBJECT_ID":"","EPOCH":"2026-03-02T06:57:02.818944","MEAN_MOTION":13.11312865,"ECCENTRICITY":0.0894865,"INCLINATION":65.8297,"RA_OF_ASC_NODE":277.0548,"ARG_OF_PERICENTER":247.3283,"MEAN_ANOMALY":103.0797,"EPHEMERIS_TYPE":0,"CLASSIFICATION_TYPE":"U","NORAD_CAT_ID":81792,"ELEMENT_SET_NO":999,"REV_AT_EPOCH":9046,"BSTAR":0.00060434,"MEAN_MOTION_DOT":1.662e-5,"MEAN_MOTION_DDOT":0},{"OBJECT_NAME":"UNKNOWN","OBJECT_ID":"","EPOCH":"2026-03-05T17:49:42.775680","MEAN_MOTION":12.38161585,"ECCENTRICITY":0.0281195,"INCLINATION":103.8061,"RA_OF_ASC_NODE":352.0703,"ARG_OF_PERICENTER":87.7017,"MEAN_ANOMALY":275.6202,"EPHEMERIS_TYPE":0,"CLASSIFICATION_TYPE":"U","NORAD_CAT_ID":81812,"ELEMENT_SET_NO":999,"REV_AT_EPOCH":55083,"BSTAR":0.050324,"MEAN_MOTION_DOT":7.474e-5,"MEAN_MOTION_DDOT":0},{"OBJECT_NAME":"UNKNOWN","OBJECT_ID":"","EPOCH":"2026-03-06T12:20:06.582048","MEAN_MOTION":13.89754232,"ECCENTRICITY":0.0173451,"INCLINATION":66.2376,"RA_OF_ASC_NODE":87.219,"ARG_OF_PERICENTER":200.6975,"MEAN_ANOMALY":158.7017,"EPHEMERIS_TYPE":0,"CLASSIFICATION_TYPE":"U","NORAD_CAT_ID":81816,"ELEMENT_SET_NO":999,"REV_AT_EPOCH":62098,"BSTAR":0.0012095,"MEAN_MOTION_DOT":1.597e-5,"MEAN_MOTION_DDOT":0}]
